[{"OBJECT_NAME":"LEMUR-2-DEMBITZ","OBJECT_ID":"2017-042T","EPOCH":"2026-03-09T11:23:53.232288","MEAN_MOTION":15.26947128,"ECCENTRICITY":0.00069617,"INCLINATION":97.3807,"RA_OF_ASC_NODE":250.9241,"ARG_OF_PERICENTER":17.1421,"MEAN_ANOMALY":343.0051,"EPHEMERIS_TYPE":0,"CLASSIFICATION_TYPE":"U","NORAD_CAT_ID":42842,"ELEMENT_SET_NO":999,"REV_AT_EPOCH":47311,"BSTAR":0.00076560825,"MEAN_MOTION_DOT":0.00020231,"MEAN_MOTION_DDOT":0},{"OBJECT_NAME":"STARLINK-30254","OBJECT_ID":"2023-115N","EPOCH":"2026-03-09T10:50:33.828288","MEAN_MOTION":15.27574266,"ECCENTRICITY":0.00011626,"INCLINATION":42.9999,"RA_OF_ASC_NODE":104.5001,"ARG_OF_PERICENTER":262.3501,"MEAN_ANOMALY":97.7219,"EPHEMERIS_TYPE":0,"CLASSIFICATION_TYPE":"U","NORAD_CAT_ID":57533,"ELEMENT_SET_NO":999,"REV_AT_EPOCH":14532,"BSTAR":-1.2825096e-5,"MEAN_MOTION_DOT":-6.15e-6,"MEAN_MOTION_DDOT":0}]
